{
  "type": "FeatureCollection",
  "features": [
    {
      "type": "Feature",
      "properties": {
        "norad_id": 30673,
        "name": "FENGYUN 1C DEB",
        "group": "fengyun-1c-debris",
        "lat": -22.61948503625857,
        "lon": 33.7287766579938,
        "alt_km": 925.1903418869479,
        "timestamp": "2025-12-06T16:45:42.999960+00:00",
        "meta_object_name": "FENGYUN 1C DEB",
        "meta_object_id": "1999-025AQF",
        "meta_epoch": "2025-12-05T20:36:43.432128",
        "meta_mean_motion": 14.03450658,
        "meta_eccentricity": 0.00523868,
        "meta_inclination": 98.9212,
        "meta_ra_of_asc_node": 29.153,
        "meta_arg_of_pericenter": 161.8288,
        "meta_mean_anomaly": 255.7783,
        "meta_ephemeris_type": 0,
        "meta_classification_type": "U",
        "meta_norad_cat_id": 30673,
        "meta_element_set_no": 999,
        "meta_rev_at_epoch": 96435,
        "meta_bstar": 0.00042954429,
        "meta_mean_motion_dot": 6.37e-06,
        "meta_mean_motion_ddot": 0,
        "tle_line1": "1 30673U 99025AQF 25339.85883602  .00000637  00000+0  42954-3 0  9998",
        "tle_line2": "2 30673  98.9212  29.1530 0052386 161.8288 255.7783 14.03450658964350"
      },
      "geometry": {
        "type": "Point",
        "coordinates": [
          33.7287766579938,
          -22.61948503625857
        ]
      }
    },
    {
      "type": "Feature",
      "properties": {
        "norad_id": 30674,
        "name": "FENGYUN 1C DEB",
        "group": "fengyun-1c-debris",
        "lat": 61.845054427264344,
        "lon": -20.220422420052497,
        "alt_km": 594.5816663265286,
        "timestamp": "2025-12-06T16:45:42.999970+00:00",
        "meta_object_name": "FENGYUN 1C DEB",
        "meta_object_id": "1999-025AQG",
        "meta_epoch": "2025-12-06T00:10:07.657248",
        "meta_mean_motion": 14.94092206,
        "meta_eccentricity": 0.00243387,
        "meta_inclination": 98.9417,
        "meta_ra_of_asc_node": 141.8839,
        "meta_arg_of_pericenter": 318.9378,
        "meta_mean_anomaly": 41.0006,
        "meta_ephemeris_type": 0,
        "meta_classification_type": "U",
        "meta_norad_cat_id": 30674,
        "meta_element_set_no": 999,
        "meta_rev_at_epoch": 97251,
        "meta_bstar": 0.010574291,
        "meta_mean_motion_dot": 0.00115391,
        "meta_mean_motion_ddot": 0,
        "tle_line1": "1 30674U 99025AQG 25340.00703307  .00115391  00000+0  10574-1 0  9996",
        "tle_line2": "2 30674  98.9417 141.8839 0024338 318.9378  41.0006 14.94092206972515"
      },
      "geometry": {
        "type": "Point",
        "coordinates": [
          -20.220422420052497,
          61.845054427264344
        ]
      }
    },
    {
      "type": "Feature",
      "properties": {
        "norad_id": 30675,
        "name": "FENGYUN 1C DEB",
        "group": "fengyun-1c-debris",
        "lat": -33.21640197796328,
        "lon": -125.97501765072924,
        "alt_km": 772.3075244300644,
        "timestamp": "2025-12-06T16:45:42.999980+00:00",
        "meta_object_name": "FENGYUN 1C DEB",
        "meta_object_id": "1999-025AQH",
        "meta_epoch": "2025-12-05T23:46:57.421632",
        "meta_mean_motion": 14.27317146,
        "meta_eccentricity": 0.00540911,
        "meta_inclination": 98.7553,
        "meta_ra_of_asc_node": 59.1082,
        "meta_arg_of_pericenter": 188.0558,
        "meta_mean_anomaly": 352.0286,
        "meta_ephemeris_type": 0,
        "meta_classification_type": "U",
        "meta_norad_cat_id": 30675,
        "meta_element_set_no": 999,
        "meta_rev_at_epoch": 96795,
        "meta_bstar": 0.0029495557,
        "meta_mean_motion_dot": 7.296e-05,
        "meta_mean_motion_ddot": 0,
        "tle_line1": "1 30675U 99025AQH 25339.99094238  .00007296  00000+0  29496-2 0  9997",
        "tle_line2": "2 30675  98.7553  59.1082 0054091 188.0558 352.0286 14.27317146967957"
      },
      "geometry": {
        "type": "Point",
        "coordinates": [
          -125.97501765072924,
          -33.21640197796328
        ]
      }
    },
    {
      "type": "Feature",
      "properties": {
        "norad_id": 30676,
        "name": "FENGYUN 1C DEB",
        "group": "fengyun-1c-debris",
        "lat": -67.4035740624955,
        "lon": -33.05248858131251,
        "alt_km": 1339.8573726464556,
        "timestamp": "2025-12-06T16:45:42.999991+00:00",
        "meta_object_name": "FENGYUN 1C DEB",
        "meta_object_id": "1999-025AQJ",
        "meta_epoch": "2025-12-05T23:50:44.234592",
        "meta_mean_motion": 13.73882678,
        "meta_eccentricity": 0.04724581,
        "meta_inclination": 98.2655,
        "meta_ra_of_asc_node": 166.7773,
        "meta_arg_of_pericenter": 66.6059,
        "meta_mean_anomaly": 298.4048,
        "meta_ephemeris_type": 0,
        "meta_classification_type": "U",
        "meta_norad_cat_id": 30676,
        "meta_element_set_no": 999,
        "meta_rev_at_epoch": 93831,
        "meta_bstar": 0.0012842535,
        "meta_mean_motion_dot": 2.679e-05,
        "meta_mean_motion_ddot": 0,
        "tle_line1": "1 30676U 99025AQJ 25339.99356753  .00002679  00000+0  12843-2 0  9999",
        "tle_line2": "2 30676  98.2655 166.7773 0472458  66.6059 298.4048 13.73882678938310"
      },
      "geometry": {
        "type": "Point",
        "coordinates": [
          -33.05248858131251,
          -67.4035740624955
        ]
      }
    },
    {
      "type": "Feature",
      "properties": {
        "norad_id": 30677,
        "name": "FENGYUN 1C DEB",
        "group": "fengyun-1c-debris",
        "lat": -14.727544638103945,
        "lon": 28.220442851919625,
        "alt_km": 794.8977669768346,
        "timestamp": "2025-12-06T16:45:43.000003+00:00",
        "meta_object_name": "FENGYUN 1C DEB",
        "meta_object_id": "1999-025AQK",
        "meta_epoch": "2025-12-05T14:49:50.988000",
        "meta_mean_motion": 14.38067722,
        "meta_eccentricity": 0.00659303,
        "meta_inclination": 98.254,
        "meta_ra_of_asc_node": 24.9955,
        "meta_arg_of_pericenter": 225.5139,
        "meta_mean_anomaly": 288.6934,
        "meta_ephemeris_type": 0,
        "meta_classification_type": "U",
        "meta_norad_cat_id": 30677,
        "meta_element_set_no": 999,
        "meta_rev_at_epoch": 97877,
        "meta_bstar": 0.002459722,
        "meta_mean_motion_dot": 7.605e-05,
        "meta_mean_motion_ddot": 0,
        "tle_line1": "1 30677U 99025AQK 25339.61795125  .00007605  00000+0  24597-2 0  9992",
        "tle_line2": "2 30677  98.2540  24.9955 0065930 225.5139 288.6934 14.38067722978775"
      },
      "geometry": {
        "type": "Point",
        "coordinates": [
          28.220442851919625,
          -14.727544638103945
        ]
      }
    },
    {
      "type": "Feature",
      "properties": {
        "norad_id": 30678,
        "name": "FENGYUN 1C DEB",
        "group": "fengyun-1c-debris",
        "lat": 43.447392211365475,
        "lon": 129.97228151894674,
        "alt_km": 827.9982511430335,
        "timestamp": "2025-12-06T16:45:43.000014+00:00",
        "meta_object_name": "FENGYUN 1C DEB",
        "meta_object_id": "1999-025AQL",
        "meta_epoch": "2025-12-05T15:41:05.070624",
        "meta_mean_motion": 14.24008072,
        "meta_eccentricity": 0.00723499,
        "meta_inclination": 99.0793,
        "meta_ra_of_asc_node": 300.1817,
        "meta_arg_of_pericenter": 251.7089,
        "meta_mean_anomaly": 291.2578,
        "meta_ephemeris_type": 0,
        "meta_classification_type": "U",
        "meta_norad_cat_id": 30678,
        "meta_element_set_no": 999,
        "meta_rev_at_epoch": 95774,
        "meta_bstar": 0.0058699404,
        "meta_mean_motion_dot": 0.00013828,
        "meta_mean_motion_ddot": 0,
        "tle_line1": "1 30678U 99025AQL 25339.65353091  .00013828  00000+0  58699-2 0  9993",
        "tle_line2": "2 30678  99.0793 300.1817 0072349 251.7089 291.2578 14.24008072957744"
      },
      "geometry": {
        "type": "Point",
        "coordinates": [
          129.97228151894674,
          43.447392211365475
        ]
      }
    },
    {
      "type": "Feature",
      "properties": {
        "norad_id": 30679,
        "name": "FENGYUN 1C DEB",
        "group": "fengyun-1c-debris",
        "lat": 35.18427141554579,
        "lon": -140.80508118423765,
        "alt_km": 879.1441541313898,
        "timestamp": "2025-12-06T16:45:43.000024+00:00",
        "meta_object_name": "FENGYUN 1C DEB",
        "meta_object_id": "1999-025AQM",
        "meta_epoch": "2025-12-05T19:32:45.777408",
        "meta_mean_motion": 13.79700398,
        "meta_eccentricity": 0.01719844,
        "meta_inclination": 99.3823,
        "meta_ra_of_asc_node": 31.625,
        "meta_arg_of_pericenter": 97.0429,
        "meta_mean_anomaly": 337.2418,
        "meta_ephemeris_type": 0,
        "meta_classification_type": "U",
        "meta_norad_cat_id": 30679,
        "meta_element_set_no": 999,
        "meta_rev_at_epoch": 94424,
        "meta_bstar": 0.0010362048,
        "meta_mean_motion_dot": 1.153e-05,
        "meta_mean_motion_ddot": 0,
        "tle_line1": "1 30679U 99025AQM 25339.81441872  .00001153  00000+0  10362-2 0  9990",
        "tle_line2": "2 30679  99.3823  31.6250 0171984  97.0429 337.2418 13.79700398944247"
      },
      "geometry": {
        "type": "Point",
        "coordinates": [
          -140.80508118423765,
          35.18427141554579
        ]
      }
    }
  ]
}